COSMOS 2242             
1 22626U 93024A   26074.92090002  .00002154  00000+0  18666-3 0  9998
2 22626  82.5150 260.7546 0014920 286.0908  73.8671 14.96575952781326
SL-16 R/B               
1 22803U 93059B   26075.18212425  .00000166  00000+0  10593-3 0  9999
2 22803  70.9931 357.4361 0018153 206.9879 153.0303 14.17232067680455
ARIANE 40 R/B           
1 22830U 93061H   26075.19280285  .00000201  00000+0  89328-4 0  9995
2 22830  98.4903 143.9517 0009578 263.5925  96.4169 14.32864512695035
COSMOS 2278             
1 23087U 94023A   26074.96283187 -.00000108  00000+0 -31696-4 0  9990
2 23087  71.0547 161.9745 0008493   2.0728 358.0428 14.14379478645690
SL-16 R/B               
1 23088U 94023B   26075.21856403 -.00000122  00000+0 -38122-4 0  9994
2 23088  70.9989  57.1744 0005600 279.1794  80.8695 14.15010079647015
SL-16 R/B               
1 23343U 94074B   26075.08334026  .00000488  00000+0  71976-4 0  9998
2 23343  97.7100 105.6421 0006262 187.9612 232.1205 14.79415807688193
SL-16 R/B               
1 23405U 94077B   26075.12698778  .00000276  00000+0  16569-3 0  9993
2 23405  70.9852 338.9477 0002721 204.1318 155.9677 14.15563410617148
ARIANE 40+ R/B          
1 23561U 95021B   26075.21087536  .00000297  00000+0  10867-3 0  9998
2 23561  98.4484 146.6048 0007855 119.3664 304.2343 14.39777457620180
SL-16 R/B               
1 23705U 95058B   26074.99295139  .00000193  00000+0  12286-3 0  9994
2 23705  71.0224 167.0223 0010512 114.3303 245.8919 14.15499361568741
SL-16 R/B               
1 24298U 96051B   26074.97333891  .00000064  00000+0  61450-4 0  9997
2 24298  70.7601 161.9397 0014545 138.2751 221.9481 14.12417287522531
ORBVIEW 2 (SEASTAR)     
1 24883U 97037A   26075.17897808  .00000286  00000+0  11559-3 0  9998
2 24883  98.8578 239.6630 0002927  58.7069 301.4402 14.35499878509406
SL-16 R/B               
1 25400U 98043G   26075.11645756  .00000044  00000+0  37343-4 0  9991
2 25400  98.8263  28.5257 0009883   2.3705 357.7519 14.26051280439904
