CCSDS_OMM_VERS = 2.0
CREATION_DATE  = 
ORIGINATOR     = 

OBJECT_NAME    = COSMOS 2242
OBJECT_ID      = 1993-024A
CENTER_NAME    = EARTH
REF_FRAME      = TEME
TIME_SYSTEM    = UTC
MEAN_ELEMENT_THEORY = SGP/SGP4

EPOCH          = 2026-03-15T22:06:05.761728
MEAN_MOTION    = 14.96575952
ECCENTRICITY   = .00149206
INCLINATION    = 82.5150
RA_OF_ASC_NODE = 260.7546
ARG_OF_PERICENTER = 286.0908
MEAN_ANOMALY   = 73.8671

EPHEMERIS_TYPE = 0
CLASSIFICATION_TYPE = U
NORAD_CAT_ID   = 22626
ELEMENT_SET_NO = 999
REV_AT_EPOCH   = 78132
BSTAR          = .18665648E-3
MEAN_MOTION_DOT = .2154E-4
MEAN_MOTION_DDOT = 0

CCSDS_OMM_VERS = 2.0
CREATION_DATE  = 
ORIGINATOR     = 

OBJECT_NAME    = SL-16 R/B
OBJECT_ID      = 1993-059B
CENTER_NAME    = EARTH
REF_FRAME      = TEME
TIME_SYSTEM    = UTC
MEAN_ELEMENT_THEORY = SGP/SGP4

EPOCH          = 2026-03-16T04:22:15.535200
MEAN_MOTION    = 14.17232067
ECCENTRICITY   = .00181531
INCLINATION    = 70.9931
RA_OF_ASC_NODE = 357.4361
ARG_OF_PERICENTER = 206.9879
MEAN_ANOMALY   = 153.0303

EPHEMERIS_TYPE = 0
CLASSIFICATION_TYPE = U
NORAD_CAT_ID   = 22803
ELEMENT_SET_NO = 999
REV_AT_EPOCH   = 68045
BSTAR          = .10593141E-3
MEAN_MOTION_DOT = .166E-5
MEAN_MOTION_DDOT = 0

CCSDS_OMM_VERS = 2.0
CREATION_DATE  = 
ORIGINATOR     = 

OBJECT_NAME    = ARIANE 40 R/B
OBJECT_ID      = 1993-061H
CENTER_NAME    = EARTH
REF_FRAME      = TEME
TIME_SYSTEM    = UTC
MEAN_ELEMENT_THEORY = SGP/SGP4

EPOCH          = 2026-03-16T04:37:38.166240
MEAN_MOTION    = 14.32864512
ECCENTRICITY   = .00095784
INCLINATION    = 98.4903
RA_OF_ASC_NODE = 143.9517
ARG_OF_PERICENTER = 263.5925
MEAN_ANOMALY   = 96.4169

EPHEMERIS_TYPE = 0
CLASSIFICATION_TYPE = U
NORAD_CAT_ID   = 22830
ELEMENT_SET_NO = 999
REV_AT_EPOCH   = 69503
BSTAR          = .89328124E-4
MEAN_MOTION_DOT = .201E-5
MEAN_MOTION_DDOT = 0

CCSDS_OMM_VERS = 2.0
CREATION_DATE  = 
ORIGINATOR     = 

OBJECT_NAME    = COSMOS 2278
OBJECT_ID      = 1994-023A
CENTER_NAME    = EARTH
REF_FRAME      = TEME
TIME_SYSTEM    = UTC
MEAN_ELEMENT_THEORY = SGP/SGP4

EPOCH          = 2026-03-15T23:06:28.673568
MEAN_MOTION    = 14.14379478
ECCENTRICITY   = .00084935
INCLINATION    = 71.0547
RA_OF_ASC_NODE = 161.9745
ARG_OF_PERICENTER = 2.0728
MEAN_ANOMALY   = 358.0428

EPHEMERIS_TYPE = 0
CLASSIFICATION_TYPE = U
NORAD_CAT_ID   = 23087
ELEMENT_SET_NO = 999
REV_AT_EPOCH   = 64569
BSTAR          = -.3169584E-4
MEAN_MOTION_DOT = -.108E-5
MEAN_MOTION_DDOT = 0

CCSDS_OMM_VERS = 2.0
CREATION_DATE  = 
ORIGINATOR     = 

OBJECT_NAME    = SL-16 R/B
OBJECT_ID      = 1994-023B
CENTER_NAME    = EARTH
REF_FRAME      = TEME
TIME_SYSTEM    = UTC
MEAN_ELEMENT_THEORY = SGP/SGP4

EPOCH          = 2026-03-16T05:14:43.932192
MEAN_MOTION    = 14.15010079
ECCENTRICITY   = .00056005
INCLINATION    = 70.9989
RA_OF_ASC_NODE = 57.1744
ARG_OF_PERICENTER = 279.1794
MEAN_ANOMALY   = 80.8695

EPHEMERIS_TYPE = 0
CLASSIFICATION_TYPE = U
NORAD_CAT_ID   = 23088
ELEMENT_SET_NO = 999
REV_AT_EPOCH   = 64701
BSTAR          = -.38121911E-4
MEAN_MOTION_DOT = -.122E-5
MEAN_MOTION_DDOT = 0

CCSDS_OMM_VERS = 2.0
CREATION_DATE  = 
ORIGINATOR     = 

OBJECT_NAME    = SL-16 R/B
OBJECT_ID      = 1994-074B
CENTER_NAME    = EARTH
REF_FRAME      = TEME
TIME_SYSTEM    = UTC
MEAN_ELEMENT_THEORY = SGP/SGP4

EPOCH          = 2026-03-16T02:00:00.598464
MEAN_MOTION    = 14.79415807
ECCENTRICITY   = .00062629
INCLINATION    = 97.7100
RA_OF_ASC_NODE = 105.6421
ARG_OF_PERICENTER = 187.9612
MEAN_ANOMALY   = 232.1205

EPHEMERIS_TYPE = 0
CLASSIFICATION_TYPE = U
NORAD_CAT_ID   = 23343
ELEMENT_SET_NO = 999
REV_AT_EPOCH   = 68819
BSTAR          = .71976417E-4
MEAN_MOTION_DOT = .488E-5
MEAN_MOTION_DDOT = 0

CCSDS_OMM_VERS = 2.0
CREATION_DATE  = 
ORIGINATOR     = 

OBJECT_NAME    = SL-16 R/B
OBJECT_ID      = 1994-077B
CENTER_NAME    = EARTH
REF_FRAME      = TEME
TIME_SYSTEM    = UTC
MEAN_ELEMENT_THEORY = SGP/SGP4

EPOCH          = 2026-03-16T03:02:51.744192
MEAN_MOTION    = 14.15563410
ECCENTRICITY   = .00027218
INCLINATION    = 70.9852
RA_OF_ASC_NODE = 338.9477
ARG_OF_PERICENTER = 204.1318
MEAN_ANOMALY   = 155.9677

EPHEMERIS_TYPE = 0
CLASSIFICATION_TYPE = U
NORAD_CAT_ID   = 23405
ELEMENT_SET_NO = 999
REV_AT_EPOCH   = 61714
BSTAR          = .16568871E-3
MEAN_MOTION_DOT = .276E-5
MEAN_MOTION_DDOT = 0

CCSDS_OMM_VERS = 2.0
CREATION_DATE  = 
ORIGINATOR     = 

OBJECT_NAME    = ARIANE 40+ R/B
OBJECT_ID      = 1995-021B
CENTER_NAME    = EARTH
REF_FRAME      = TEME
TIME_SYSTEM    = UTC
MEAN_ELEMENT_THEORY = SGP/SGP4

EPOCH          = 2026-03-16T05:03:39.631104
MEAN_MOTION    = 14.39777457
ECCENTRICITY   = .00078557
INCLINATION    = 98.4484
RA_OF_ASC_NODE = 146.6048
ARG_OF_PERICENTER = 119.3664
MEAN_ANOMALY   = 304.2343

EPHEMERIS_TYPE = 0
CLASSIFICATION_TYPE = U
NORAD_CAT_ID   = 23561
ELEMENT_SET_NO = 999
REV_AT_EPOCH   = 62018
BSTAR          = .10867299E-3
MEAN_MOTION_DOT = .297E-5
MEAN_MOTION_DDOT = 0

CCSDS_OMM_VERS = 2.0
CREATION_DATE  = 
ORIGINATOR     = 

OBJECT_NAME    = SL-16 R/B
OBJECT_ID      = 1995-058B
CENTER_NAME    = EARTH
REF_FRAME      = TEME
TIME_SYSTEM    = UTC
MEAN_ELEMENT_THEORY = SGP/SGP4

EPOCH          = 2026-03-15T23:49:51.000096
MEAN_MOTION    = 14.15499361
ECCENTRICITY   = .0010512
INCLINATION    = 71.0224
RA_OF_ASC_NODE = 167.0223
ARG_OF_PERICENTER = 114.3303
MEAN_ANOMALY   = 245.8919

EPHEMERIS_TYPE = 0
CLASSIFICATION_TYPE = U
NORAD_CAT_ID   = 23705
ELEMENT_SET_NO = 999
REV_AT_EPOCH   = 56874
BSTAR          = .12285828E-3
MEAN_MOTION_DOT = .193E-5
MEAN_MOTION_DDOT = 0

CCSDS_OMM_VERS = 2.0
CREATION_DATE  = 
ORIGINATOR     = 

OBJECT_NAME    = SL-16 R/B
OBJECT_ID      = 1996-051B
CENTER_NAME    = EARTH
REF_FRAME      = TEME
TIME_SYSTEM    = UTC
MEAN_ELEMENT_THEORY = SGP/SGP4

EPOCH          = 2026-03-15T23:21:36.481824
MEAN_MOTION    = 14.12417287
ECCENTRICITY   = .00145453
INCLINATION    = 70.7601
RA_OF_ASC_NODE = 161.9397
ARG_OF_PERICENTER = 138.2751
MEAN_ANOMALY   = 221.9481

EPHEMERIS_TYPE = 0
CLASSIFICATION_TYPE = U
NORAD_CAT_ID   = 24298
ELEMENT_SET_NO = 999
REV_AT_EPOCH   = 52253
BSTAR          = .61450355E-4
MEAN_MOTION_DOT = .64E-6
MEAN_MOTION_DDOT = 0

CCSDS_OMM_VERS = 2.0
CREATION_DATE  = 
ORIGINATOR     = 

OBJECT_NAME    = ORBVIEW 2 (SEASTAR)
OBJECT_ID      = 1997-037A
CENTER_NAME    = EARTH
REF_FRAME      = TEME
TIME_SYSTEM    = UTC
MEAN_ELEMENT_THEORY = SGP/SGP4

EPOCH          = 2026-03-16T04:17:43.706112
MEAN_MOTION    = 14.35499878
ECCENTRICITY   = .0002927
INCLINATION    = 98.8578
RA_OF_ASC_NODE = 239.6630
ARG_OF_PERICENTER = 58.7069
MEAN_ANOMALY   = 301.4402

EPHEMERIS_TYPE = 0
CLASSIFICATION_TYPE = U
NORAD_CAT_ID   = 24883
ELEMENT_SET_NO = 999
REV_AT_EPOCH   = 50940
BSTAR          = .11558798E-3
MEAN_MOTION_DOT = .286E-5
MEAN_MOTION_DDOT = 0

CCSDS_OMM_VERS = 2.0
CREATION_DATE  = 
ORIGINATOR     = 

OBJECT_NAME    = SL-16 R/B
OBJECT_ID      = 1998-043G
CENTER_NAME    = EARTH
REF_FRAME      = TEME
TIME_SYSTEM    = UTC
MEAN_ELEMENT_THEORY = SGP/SGP4

EPOCH          = 2026-03-16T02:47:41.933184
MEAN_MOTION    = 14.26051280
ECCENTRICITY   = .00098839
INCLINATION    = 98.8263
RA_OF_ASC_NODE = 28.5257
ARG_OF_PERICENTER = 2.3705
MEAN_ANOMALY   = 357.7519

EPHEMERIS_TYPE = 0
CLASSIFICATION_TYPE = U
NORAD_CAT_ID   = 25400
ELEMENT_SET_NO = 999
REV_AT_EPOCH   = 43990
BSTAR          = .37343354E-4
MEAN_MOTION_DOT = .44E-6
MEAN_MOTION_DDOT = 0

